{
  "type": "FeatureCollection",
  "features": [
    {
      "type": "Feature",
      "properties": {
        "norad_id": 42988,
        "name": "SKYSAT-C10",
        "group": "resource",
        "lat": -80.30002112010618,
        "lon": 167.94819580606017,
        "alt_km": 480.61046536021786,
        "timestamp": "2025-12-13T08:49:15.351089+00:00",
        "meta_object_name": "SKYSAT-C10",
        "meta_object_id": "2017-068B",
        "meta_epoch": "2025-12-12T22:12:49.471776",
        "meta_mean_motion": 15.32068085,
        "meta_eccentricity": 0.00053429,
        "meta_inclination": 97.4254,
        "meta_ra_of_asc_node": 117.7766,
        "meta_arg_of_pericenter": 102.9889,
        "meta_mean_anomaly": 257.195,
        "meta_ephemeris_type": 0,
        "meta_classification_type": "U",
        "meta_norad_cat_id": 42988,
        "meta_element_set_no": 999,
        "meta_rev_at_epoch": 45382,
        "meta_bstar": 0.00051154393,
        "meta_mean_motion_dot": 0.00015781,
        "meta_mean_motion_ddot": 0,
        "tle_line1": "1 42988U 17068B   25346.92557259  .00015781  00000+0  51154-3 0  9997",
        "tle_line2": "2 42988  97.4254 117.7766 0005342 102.9889 257.1950 15.32068085453829"
      },
      "geometry": {
        "type": "Point",
        "coordinates": [
          167.94819580606017,
          -80.30002112010618
        ]
      }
    },
    {
      "type": "Feature",
      "properties": {
        "norad_id": 42989,
        "name": "SKYSAT-C9",
        "group": "resource",
        "lat": 46.514256859870656,
        "lon": -54.47823507633775,
        "alt_km": 448.8346052880388,
        "timestamp": "2025-12-13T08:49:15.351099+00:00",
        "meta_object_name": "SKYSAT-C9",
        "meta_object_id": "2017-068C",
        "meta_epoch": "2025-12-12T21:18:03.960576",
        "meta_mean_motion": 15.36054461,
        "meta_eccentricity": 0.0010627,
        "meta_inclination": 97.4185,
        "meta_ra_of_asc_node": 117.1422,
        "meta_arg_of_pericenter": 86.9347,
        "meta_mean_anomaly": 273.3113,
        "meta_ephemeris_type": 0,
        "meta_classification_type": "U",
        "meta_norad_cat_id": 42989,
        "meta_element_set_no": 999,
        "meta_rev_at_epoch": 45410,
        "meta_bstar": 0.00050474148,
        "meta_mean_motion_dot": 0.00017693,
        "meta_mean_motion_ddot": 0,
        "tle_line1": "1 42989U 17068C   25346.88754584  .00017693  00000+0  50474-3 0  9991",
        "tle_line2": "2 42989  97.4185 117.1422 0010627  86.9347 273.3113 15.36054461454108"
      },
      "geometry": {
        "type": "Point",
        "coordinates": [
          -54.47823507633775,
          46.514256859870656
        ]
      }
    },
    {
      "type": "Feature",
      "properties": {
        "norad_id": 42990,
        "name": "SKYSAT-C8",
        "group": "resource",
        "lat": 80.07171520187882,
        "lon": -14.443952061713716,
        "alt_km": 460.07101920357763,
        "timestamp": "2025-12-13T08:49:15.351110+00:00",
        "meta_object_name": "SKYSAT-C8",
        "meta_object_id": "2017-068D",
        "meta_epoch": "2025-12-12T23:00:04.964256",
        "meta_mean_motion": 15.32927639,
        "meta_eccentricity": 0.00016162,
        "meta_inclination": 97.4275,
        "meta_ra_of_asc_node": 116.9591,
        "meta_arg_of_pericenter": 346.6328,
        "meta_mean_anomaly": 13.4871,
        "meta_ephemeris_type": 0,
        "meta_classification_type": "U",
        "meta_norad_cat_id": 42990,
        "meta_element_set_no": 999,
        "meta_rev_at_epoch": 45374,
        "meta_bstar": 0.00051001076,
        "meta_mean_motion_dot": 0.00016158,
        "meta_mean_motion_ddot": 0,
        "tle_line1": "1 42990U 17068D   25346.95839079  .00016158  00000+0  51001-3 0  9996",
        "tle_line2": "2 42990  97.4275 116.9591 0001616 346.6328  13.4871 15.32927639453742"
      },
      "geometry": {
        "type": "Point",
        "coordinates": [
          -14.443952061713716,
          80.07171520187882
        ]
      }
    },
    {
      "type": "Feature",
      "properties": {
        "norad_id": 42991,
        "name": "SKYSAT-C7",
        "group": "resource",
        "lat": -48.95680000313382,
        "lon": 127.02984974643596,
        "alt_km": 477.0163708910204,
        "timestamp": "2025-12-13T08:49:15.351121+00:00",
        "meta_object_name": "SKYSAT-C7",
        "meta_object_id": "2017-068E",
        "meta_epoch": "2025-12-12T22:03:57.220992",
        "meta_mean_motion": 15.32331015,
        "meta_eccentricity": 0.00076316,
        "meta_inclination": 97.4284,
        "meta_ra_of_asc_node": 117.9612,
        "meta_arg_of_pericenter": 56.3427,
        "meta_mean_anomaly": 303.8542,
        "meta_ephemeris_type": 0,
        "meta_classification_type": "U",
        "meta_norad_cat_id": 42991,
        "meta_element_set_no": 999,
        "meta_rev_at_epoch": 45380,
        "meta_bstar": 0.00051799565,
        "meta_mean_motion_dot": 0.00016121,
        "meta_mean_motion_ddot": 0,
        "tle_line1": "1 42991U 17068E   25346.91941228  .00016121  00000+0  51800-3 0  9990",
        "tle_line2": "2 42991  97.4284 117.9612 0007631  56.3427 303.8542 15.32331015453801"
      },
      "geometry": {
        "type": "Point",
        "coordinates": [
          127.02984974643596,
          -48.95680000313382
        ]
      }
    },
    {
      "type": "Feature",
      "properties": {
        "norad_id": 42992,
        "name": "SKYSAT-C6",
        "group": "resource",
        "lat": 64.5819623604295,
        "lon": 102.90629675628564,
        "alt_km": 461.61358848142936,
        "timestamp": "2025-12-13T08:49:15.351131+00:00",
        "meta_object_name": "SKYSAT-C6",
        "meta_object_id": "2017-068F",
        "meta_epoch": "2025-12-12T21:33:32.005440",
        "meta_mean_motion": 15.31492716,
        "meta_eccentricity": 0.00051766,
        "meta_inclination": 97.4316,
        "meta_ra_of_asc_node": 118.3784,
        "meta_arg_of_pericenter": 81.9204,
        "meta_mean_anomaly": 278.2625,
        "meta_ephemeris_type": 0,
        "meta_classification_type": "U",
        "meta_norad_cat_id": 42992,
        "meta_element_set_no": 999,
        "meta_rev_at_epoch": 45378,
        "meta_bstar": 0.00048536429,
        "meta_mean_motion_dot": 0.00014701,
        "meta_mean_motion_ddot": 0,
        "tle_line1": "1 42992U 17068F   25346.89828710  .00014701  00000+0  48536-3 0  9992",
        "tle_line2": "2 42992  97.4316 118.3784 0005176  81.9204 278.2625 15.31492716453781"
      },
      "geometry": {
        "type": "Point",
        "coordinates": [
          102.90629675628564,
          64.5819623604295
        ]
      }
    },
    {
      "type": "Feature",
      "properties": {
        "norad_id": 43111,
        "name": "CARTOSAT-2F",
        "group": "resource",
        "lat": 35.02076873948777,
        "lon": -129.75732339145054,
        "alt_km": 504.9923455946382,
        "timestamp": "2025-12-13T08:49:15.351142+00:00",
        "meta_object_name": "CARTOSAT-2F",
        "meta_object_id": "2018-004A",
        "meta_epoch": "2025-12-13T00:17:00.046176",
        "meta_mean_motion": 15.19280127,
        "meta_eccentricity": 0.0001105,
        "meta_inclination": 97.432,
        "meta_ra_of_asc_node": 44.6443,
        "meta_arg_of_pericenter": 136.3644,
        "meta_mean_anomaly": 223.7678,
        "meta_ephemeris_type": 0,
        "meta_classification_type": "U",
        "meta_norad_cat_id": 43111,
        "meta_element_set_no": 999,
        "meta_rev_at_epoch": 43906,
        "meta_bstar": 0.0003399813,
        "meta_mean_motion_dot": 7.106e-05,
        "meta_mean_motion_ddot": 0,
        "tle_line1": "1 43111U 18004A   25347.01180609  .00007106  00000+0  33998-3 0  9997",
        "tle_line2": "2 43111  97.4320  44.6443 0001105 136.3644 223.7678 15.19280127439069"
      },
      "geometry": {
        "type": "Point",
        "coordinates": [
          -129.75732339145054,
          35.02076873948777
        ]
      }
    },
    {
      "type": "Feature",
      "properties": {
        "norad_id": 43259,
        "name": "GAOFEN-1 02",
        "group": "resource",
        "lat": 5.578351300057422,
        "lon": -134.04821573894228,
        "alt_km": 641.9629688045852,
        "timestamp": "2025-12-13T08:49:15.351153+00:00",
        "meta_object_name": "GAOFEN-1 02",
        "meta_object_id": "2018-031A",
        "meta_epoch": "2025-12-12T23:54:05.021280",
        "meta_mean_motion": 14.76417172,
        "meta_eccentricity": 0.00017886,
        "meta_inclination": 98.0804,
        "meta_ra_of_asc_node": 44.785,
        "meta_arg_of_pericenter": 216.7396,
        "meta_mean_anomaly": 143.3692,
        "meta_ephemeris_type": 0,
        "meta_classification_type": "U",
        "meta_norad_cat_id": 43259,
        "meta_element_set_no": 999,
        "meta_rev_at_epoch": 41522,
        "meta_bstar": 0.00027196206,
        "meta_mean_motion_dot": 1.839e-05,
        "meta_mean_motion_ddot": 0,
        "tle_line1": "1 43259U 18031A   25346.99589145  .00001839  00000+0  27196-3 0  9994",
        "tle_line2": "2 43259  98.0804  44.7850 0001788 216.7396 143.3692 14.76417172415222"
      },
      "geometry": {
        "type": "Point",
        "coordinates": [
          -134.04821573894228,
          5.578351300057422
        ]
      }
    }
  ]
}